{
  "type": "FeatureCollection",
  "features": [
    {
      "type": "Feature",
      "properties": {
        "norad_id": 30564,
        "name": "FENGYUN 1C DEB",
        "group": "fengyun-1c-debris",
        "lat": -43.16010197902312,
        "lon": 3.9302173933952878,
        "alt_km": 1025.948039840995,
        "timestamp": "2025-12-09T16:56:36.851970+00:00",
        "meta_object_name": "FENGYUN 1C DEB",
        "meta_object_id": "1999-025ALE",
        "meta_epoch": "2025-12-09T12:44:19.698720",
        "meta_mean_motion": 14.05740101,
        "meta_eccentricity": 0.0202975,
        "meta_inclination": 98.7963,
        "meta_ra_of_asc_node": 355.4111,
        "meta_arg_of_pericenter": 127.8418,
        "meta_mean_anomaly": 22.6814,
        "meta_ephemeris_type": 0,
        "meta_classification_type": "U",
        "meta_norad_cat_id": 30564,
        "meta_element_set_no": 999,
        "meta_rev_at_epoch": 96250,
        "meta_bstar": 0.00079799,
        "meta_mean_motion_dot": 1.527e-05,
        "meta_mean_motion_ddot": 0,
        "tle_line1": "1 30564U 99025ALE 25343.53078355  .00001527  00000+0  79799-3 0  9994",
        "tle_line2": "2 30564  98.7963 355.4111 0202975 127.8418  22.6814 14.05740101962506"
      },
      "geometry": {
        "type": "Point",
        "coordinates": [
          3.9302173933952878,
          -43.16010197902312
        ]
      }
    },
    {
      "type": "Feature",
      "properties": {
        "norad_id": 30565,
        "name": "FENGYUN 1C DEB",
        "group": "fengyun-1c-debris",
        "lat": 66.02656187908458,
        "lon": -165.4246499709292,
        "alt_km": 804.465731555224,
        "timestamp": "2025-12-09T16:56:36.851981+00:00",
        "meta_object_name": "FENGYUN 1C DEB",
        "meta_object_id": "1999-025ALF",
        "meta_epoch": "2025-12-07T15:20:47.064768",
        "meta_mean_motion": 14.09886794,
        "meta_eccentricity": 0.01433168,
        "meta_inclination": 98.4517,
        "meta_ra_of_asc_node": 212.1673,
        "meta_arg_of_pericenter": 10.7275,
        "meta_mean_anomaly": 12.199,
        "meta_ephemeris_type": 0,
        "meta_classification_type": "U",
        "meta_norad_cat_id": 30565,
        "meta_element_set_no": 999,
        "meta_rev_at_epoch": 95855,
        "meta_bstar": 0.0030274848,
        "meta_mean_motion_dot": 5.826e-05,
        "meta_mean_motion_ddot": 0,
        "tle_line1": "1 30565U 99025ALF 25341.63943362  .00005826  00000+0  30275-2 0  9994",
        "tle_line2": "2 30565  98.4517 212.1673 0143316  10.7275  12.1990 14.09886794958557"
      },
      "geometry": {
        "type": "Point",
        "coordinates": [
          -165.4246499709292,
          66.02656187908458
        ]
      }
    },
    {
      "type": "Feature",
      "properties": {
        "norad_id": 30566,
        "name": "FENGYUN 1C DEB",
        "group": "fengyun-1c-debris",
        "lat": -12.861650822874816,
        "lon": 34.28678376328029,
        "alt_km": 903.4138258359817,
        "timestamp": "2025-12-09T16:56:36.851991+00:00",
        "meta_object_name": "FENGYUN 1C DEB",
        "meta_object_id": "1999-025ALG",
        "meta_epoch": "2025-12-09T01:59:57.785280",
        "meta_mean_motion": 14.11658756,
        "meta_eccentricity": 0.0068368,
        "meta_inclination": 99.2166,
        "meta_ra_of_asc_node": 31.5229,
        "meta_arg_of_pericenter": 192.2346,
        "meta_mean_anomaly": 231.8597,
        "meta_ephemeris_type": 0,
        "meta_classification_type": "U",
        "meta_norad_cat_id": 30566,
        "meta_element_set_no": 999,
        "meta_rev_at_epoch": 96331,
        "meta_bstar": 0.0018414214,
        "meta_mean_motion_dot": 3.378e-05,
        "meta_mean_motion_ddot": 0,
        "tle_line1": "1 30566U 99025ALG 25343.08330770  .00003378  00000+0  18414-2 0  9990",
        "tle_line2": "2 30566  99.2166  31.5229 0068368 192.2346 231.8597 14.11658756963316"
      },
      "geometry": {
        "type": "Point",
        "coordinates": [
          34.28678376328029,
          -12.861650822874816
        ]
      }
    },
    {
      "type": "Feature",
      "properties": {
        "norad_id": 30567,
        "name": "FENGYUN 1C DEB",
        "group": "fengyun-1c-debris",
        "lat": -24.483772117050403,
        "lon": -21.493730035601807,
        "alt_km": 926.1525734829893,
        "timestamp": "2025-12-09T16:56:36.852001+00:00",
        "meta_object_name": "FENGYUN 1C DEB",
        "meta_object_id": "1999-025ALH",
        "meta_epoch": "2025-12-09T10:58:21.935712",
        "meta_mean_motion": 14.08893838,
        "meta_eccentricity": 0.0108621,
        "meta_inclination": 98.7753,
        "meta_ra_of_asc_node": 334.2305,
        "meta_arg_of_pericenter": 198.6158,
        "meta_mean_anomaly": 314.7199,
        "meta_ephemeris_type": 0,
        "meta_classification_type": "U",
        "meta_norad_cat_id": 30567,
        "meta_element_set_no": 999,
        "meta_rev_at_epoch": 96727,
        "meta_bstar": 0.00043856,
        "meta_mean_motion_dot": 7.57e-06,
        "meta_mean_motion_ddot": 0,
        "tle_line1": "1 30567U 99025ALH 25343.45719833  .00000757  00000+0  43856-3 0  9990",
        "tle_line2": "2 30567  98.7753 334.2305 0108621 198.6158 314.7199 14.08893838967275"
      },
      "geometry": {
        "type": "Point",
        "coordinates": [
          -21.493730035601807,
          -24.483772117050403
        ]
      }
    },
    {
      "type": "Feature",
      "properties": {
        "norad_id": 30568,
        "name": "FENGYUN 1C DEB",
        "group": "fengyun-1c-debris",
        "lat": 71.51214880433267,
        "lon": 125.58216957826052,
        "alt_km": 709.8696784912981,
        "timestamp": "2025-12-09T16:56:36.852012+00:00",
        "meta_object_name": "FENGYUN 1C DEB",
        "meta_object_id": "1999-025ALJ",
        "meta_epoch": "2025-12-08T17:35:29.704416",
        "meta_mean_motion": 14.54971797,
        "meta_eccentricity": 0.00165423,
        "meta_inclination": 98.9428,
        "meta_ra_of_asc_node": 152.6375,
        "meta_arg_of_pericenter": 206.4789,
        "meta_mean_anomaly": 173.848,
        "meta_ephemeris_type": 0,
        "meta_classification_type": "U",
        "meta_norad_cat_id": 30568,
        "meta_element_set_no": 999,
        "meta_rev_at_epoch": 97601,
        "meta_bstar": 0.0053253144,
        "meta_mean_motion_dot": 0.00022986,
        "meta_mean_motion_ddot": 0,
        "tle_line1": "1 30568U 99025ALJ 25342.73298269  .00022986  00000+0  53253-2 0  9995",
        "tle_line2": "2 30568  98.9428 152.6375 0016542 206.4789 173.8480 14.54971797976015"
      },
      "geometry": {
        "type": "Point",
        "coordinates": [
          125.58216957826052,
          71.51214880433267
        ]
      }
    },
    {
      "type": "Feature",
      "properties": {
        "norad_id": 30569,
        "name": "FENGYUN 1C DEB",
        "group": "fengyun-1c-debris",
        "lat": -60.199256273275,
        "lon": -73.13057416156376,
        "alt_km": 660.7152792519428,
        "timestamp": "2025-12-09T16:56:36.852022+00:00",
        "meta_object_name": "FENGYUN 1C DEB",
        "meta_object_id": "1999-025ALK",
        "meta_epoch": "2025-12-09T09:19:58.196928",
        "meta_mean_motion": 14.73421777,
        "meta_eccentricity": 0.000659,
        "meta_inclination": 98.7389,
        "meta_ra_of_asc_node": 122.1077,
        "meta_arg_of_pericenter": 103.3794,
        "meta_mean_anomaly": 256.8147,
        "meta_ephemeris_type": 0,
        "meta_classification_type": "U",
        "meta_norad_cat_id": 30569,
        "meta_element_set_no": 999,
        "meta_rev_at_epoch": 98157,
        "meta_bstar": 0.0050881,
        "meta_mean_motion_dot": 0.00033108,
        "meta_mean_motion_ddot": 0,
        "tle_line1": "1 30569U 99025ALK 25343.38886802  .00033108  00000+0  50881-2 0  9996",
        "tle_line2": "2 30569  98.7389 122.1077 0006590 103.3794 256.8147 14.73421777981572"
      },
      "geometry": {
        "type": "Point",
        "coordinates": [
          -73.13057416156376,
          -60.199256273275
        ]
      }
    },
    {
      "type": "Feature",
      "properties": {
        "norad_id": 30570,
        "name": "FENGYUN 1C DEB",
        "group": "fengyun-1c-debris",
        "lat": 42.59367537783493,
        "lon": 8.193752454433913,
        "alt_km": 866.6165013787468,
        "timestamp": "2025-12-09T16:56:36.852032+00:00",
        "meta_object_name": "FENGYUN 1C DEB",
        "meta_object_id": "1999-025ALL",
        "meta_epoch": "2025-12-09T01:42:56.393856",
        "meta_mean_motion": 14.14257849,
        "meta_eccentricity": 0.00351057,
        "meta_inclination": 98.7154,
        "meta_ra_of_asc_node": 15.6818,
        "meta_arg_of_pericenter": 222.5091,
        "meta_mean_anomaly": 192.1821,
        "meta_ephemeris_type": 0,
        "meta_classification_type": "U",
        "meta_norad_cat_id": 30570,
        "meta_element_set_no": 999,
        "meta_rev_at_epoch": 96946,
        "meta_bstar": 0.00066138477,
        "meta_mean_motion_dot": 1.227e-05,
        "meta_mean_motion_ddot": 0,
        "tle_line1": "1 30570U 99025ALL 25343.07148604  .00001227  00000+0  66138-3 0  9995",
        "tle_line2": "2 30570  98.7154  15.6818 0035105 222.5091 192.1821 14.14257849969468"
      },
      "geometry": {
        "type": "Point",
        "coordinates": [
          8.193752454433913,
          42.59367537783493
        ]
      }
    }
  ]
}